*******************************************************************************
Ephemeris / WWW_USER Tue Mar 27 22:05:03 2018 Pasadena, USA      / Horizons    
*******************************************************************************
Target body name: Earth (399)                     {source: DE431mx}
Center body name: Solar System Barycenter (0)     {source: DE431mx}
Center-site name: BODY CENTER
*******************************************************************************
Start time      : A.D. 2018-Feb-08 00:00:00.0000 TDB
Stop  time      : A.D. 2023-Feb-08 00:00:00.0000 TDB
Step-size       : 7200 minutes
*******************************************************************************
Center geodetic : 0.00000000,0.00000000,0.0000000 {E-lon(deg),Lat(deg),Alt(km)}
Center cylindric: 0.00000000,0.00000000,0.0000000 {E-lon(deg),Dxy(km),Dz(km)}
Center radii    : (undefined)                                                  
Output units    : AU-D                                                         
Output type     : GEOMETRIC cartesian states
Output format   : 2 (position and velocity)
Reference frame : ICRF/J2000.0                                                 
Coordinate systm: Ecliptic and Mean Equinox of Reference Epoch                 
*******************************************************************************
JDTDB
   X     Y     Z
   VX    VY    VZ
*******************************************************************************
$$SOE
2459837.500000000 = A.D. 2022-Sep-15 00:00:00.0000 TDB 
   9.865222026749700E-01 -1.417372116666198E-01  2.043006288172085E-04
   2.167323783750876E-03  1.695122864231344E-02 -1.421023080067037E-06
2459842.500000000 = A.D. 2022-Sep-20 00:00:00.0000 TDB 
   9.937306109450987E-01 -5.654700099079815E-02  1.978972409501223E-04
   7.120312698762947E-04  1.710441012105732E-02 -1.047108234902225E-06
2459847.500000000 = A.D. 2022-Sep-25 00:00:00.0000 TDB 
   9.936122113347695E-01  2.909517523176497E-02  1.943180584017931E-04
  -7.612865546349212E-04  1.713061869237453E-02 -3.882177412244117E-07
2459852.500000000 = A.D. 2022-Sep-30 00:00:00.0000 TDB 
   9.861136895090741E-01  1.145359186146820E-01  1.933245557048994E-04
  -2.236803019676538E-03  1.702319274570160E-02 -1.387371851446335E-07
2459857.500000000 = A.D. 2022-Oct-05 00:00:00.0000 TDB 
   9.712742690172574E-01  1.991079106465248E-01  1.915060282751896E-04
  -3.694636133970332E-03  1.678466567979812E-02 -6.949344956437931E-07
2459862.500000000 = A.D. 2022-Oct-10 00:00:00.0000 TDB 
   9.492155481687793E-01  2.821840173567476E-01  1.862411860192990E-04
  -5.124013043518557E-03  1.642665300053091E-02 -1.326425012126309E-06
2459867.500000000 = A.D. 2022-Oct-15 00:00:00.0000 TDB 
   9.200818348890607E-01  3.631824704444661E-01  1.795584092919400E-04
  -6.524429132186250E-03  1.595310279372957E-02 -1.215529212365919E-06
2459872.500000000 = A.D. 2022-Oct-20 00:00:00.0000 TDB 
   8.840297621124538E-01  4.415142402590911E-01  1.749984326956177E-04
  -7.889546307355477E-03  1.535919867195853E-02 -5.636749367385913E-07
2459877.500000000 = A.D. 2022-Oct-25 00:00:00.0000 TDB 
   8.412669759224634E-01  5.165684221527228E-01  1.738191732526279E-04
  -9.206090560136687E-03  1.464176619612772E-02  1.672379395170177E-08
2459882.500000000 = A.D. 2022-Oct-30 00:00:00.0000 TDB 
   7.920813238046336E-01  5.877286048016621E-01  1.738226653504368E-04
  -1.045517717227722E-02  1.380293811081621E-02 -1.708219481394211E-07
2459887.500000000 = A.D. 2022-Nov-04 00:00:00.0000 TDB 
   7.368554437254135E-01  6.544199432812893E-01  1.711726253610093E-04
  -1.162076112533260E-02  1.285733583974577E-02 -8.876961635918319E-07
2459892.500000000 = A.D. 2022-Nov-09 00:00:00.0000 TDB 
   6.760162942556832E-01  7.161486311628915E-01  1.658098500149374E-04
  -1.270079686853116E-02  1.181925669493911E-02 -1.121564335269679E-06
2459897.500000000 = A.D. 2022-Nov-14 00:00:00.0000 TDB 
   6.099907814554933E-01  7.724637566216225E-01  1.612157192234349E-04
  -1.369452135386774E-02  1.069189179712792E-02 -6.266257473628457E-07
2459902.500000000 = A.D. 2022-Nov-19 00:00:00.0000 TDB 
   5.392285974967722E-01  8.229198787453376E-01  1.599360890079512E-04
  -1.459363092804604E-02  9.476031042930528E-03  1.009885251364340E-07
2459907.500000000 = A.D. 2022-Nov-24 00:00:00.0000 TDB 
   4.642337495314031E-01  8.670826861665556E-01  1.614580919085640E-04
  -1.538492589110384E-02  8.175602022853818E-03  3.668403103832215E-07
2459912.500000000 = A.D. 2022-Nov-29 00:00:00.0000 TDB 
   3.855876830132094E-01  9.045560317405146E-01  1.620819914613526E-04
  -1.605178923909676E-02  6.803780041025600E-03 -2.125888567998225E-07
2459917.500000000 = A.D. 2022-Dec-04 00:00:00.0000 TDB 
   3.039307457947901E-01  9.350394222248760E-01  1.594615552264265E-04
  -1.659004766184016E-02  5.382756556595895E-03 -7.355468309102361E-07
2459922.500000000 = A.D. 2022-Dec-09 00:00:00.0000 TDB 
   2.198922954143908E-01  9.583215272130123E-01  1.560113849508206E-04
  -1.700499903750630E-02  3.924263222297346E-03 -5.223737714261730E-07
2459927.500000000 = A.D. 2022-Dec-14 00:00:00.0000 TDB 
   1.340862148727424E-01  9.742269982189337E-01  1.550577450480005E-04
  -1.729648103162437E-02  2.432819969215068E-03  1.732481660416415E-07
2459932.500000000 = A.D. 2022-Dec-19 00:00:00.0000 TDB 
   4.714277060129324E-02  9.826042872361569E-01  1.575310127126299E-04
  -1.745868334101955E-02  9.142042914113470E-04  7.381558936874715E-07
2459937.500000000 = A.D. 2022-Dec-24 00:00:00.0000 TDB 
  -4.026895463229270E-02  9.833398558545976E-01  1.611128564310595E-04
  -1.748180977902634E-02 -6.214012457771398E-04  5.354069059635331E-07
2459942.500000000 = A.D. 2022-Dec-29 00:00:00.0000 TDB 
  -1.274307082871504E-01  9.763990541514104E-01  1.619968247575238E-04
  -1.735908284462758E-02 -2.151849331103704E-03 -1.551956917797068E-07
2459947.500000000 = A.D. 2023-Jan-03 00:00:00.0000 TDB 
  -2.136339130716188E-01  9.618640347230242E-01  1.606122477319490E-04
  -1.710062059478357E-02 -3.657223970656179E-03 -2.661352665751483E-07
2459952.500000000 = A.D. 2023-Jan-08 00:00:00.0000 TDB 
  -2.982268442448662E-01  9.398800277784196E-01  1.604469343801058E-04
  -1.671589274585754E-02 -5.130688222990043E-03  2.731888427948561E-07
2459957.500000000 = A.D. 2023-Jan-13 00:00:00.0000 TDB 
  -3.805871704560708E-01  9.106184424642619E-01  1.635667770689050E-04
  -1.620763889624940E-02 -6.567287973002685E-03  9.437522437090363E-07
2459962.500000000 = A.D. 2023-Jan-18 00:00:00.0000 TDB 
  -4.600953622209216E-01  8.742806774067292E-01  1.690532403899542E-04
  -1.557453216874891E-02 -7.959597297360342E-03  1.119678265446352E-06
2459967.500000000 = A.D. 2023-Jan-23 00:00:00.0000 TDB 
  -5.361176683208511E-01  8.311193572580009E-01  1.733493625485742E-04
  -1.481293216243325E-02 -9.293211590800902E-03  5.081867579452867E-07
2459972.500000000 = A.D. 2023-Jan-28 00:00:00.0000 TDB 
  -6.080231589606359E-01  7.814857910946356E-01  1.744342765040452E-04
  -1.393092580881951E-02 -1.054527969007901E-02  4.984417766174233E-08
2459977.500000000 = A.D. 2023-Feb-02 00:00:00.0000 TDB 
  -6.752583439648717E-01  7.258183858516724E-01  1.751721126425573E-04
  -1.294736172330275E-02 -1.170641622043806E-02  3.515816111062113E-07
2459982.500000000 = A.D. 2023-Feb-07 00:00:00.0000 TDB 
  -7.373460369511108E-01  6.645753633246467E-01  1.785656545285397E-04
  -1.187320615115663E-02 -1.277527498285300E-02  1.017324394726070E-06
